{"type":"FeatureCollection","name":"Purdue Cameras","features":[{"type":"Feature","properties":{"REMARKS":"Brng"},"geometry":{"type":"Point","coordinates":[-86.916408333,40.425213333,158.6]}},{"type":"Feature","properties":{"REMARKS":"PMU - Loading"},"geometry":{"type":"Point","coordinates":[-86.911044717,40.425315494,156.0]}},{"type":"Feature","properties":{"REMARKS":"STEW - Public"},"geometry":{"type":"Point","coordinates":[-86.911901347,40.424773129,164.4]}},{"type":"Feature","properties":{"REMARKS":"PMU - Public"},"geometry":{"type":"Point","coordinates":[-86.911683753,40.424560775,161.4]}},{"type":"Feature","properties":{"REMARKS":"PMU - Public"},"geometry":{"type":"Point","coordinates":[-86.911247224,40.424575834,152.1]}},{"type":"Feature","properties":{"REMARKS":"PMU - Public"},"geometry":{"type":"Point","coordinates":[-86.910966933,40.424620245,152.5]}},{"type":"Feature","properties":{"REMARKS":"Lamppost - Public"},"geometry":{"type":"Point","coordinates":[-86.91082444,40.424452557,149.4]}},{"type":"Feature","properties":{"REMARKS":"PMU - Public"},"geometry":{"type":"Point","coordinates":[-86.910736933,40.424574048,150.5]}},{"type":"Feature","properties":{"REMARKS":"PMU - Public"},"geometry":{"type":"Point","coordinates":[-86.910565272,40.424826982,152.2]}},{"type":"Feature","properties":{"REMARKS":"UC - Public"},"geometry":{"type":"Point","coordinates":[-86.910219267,40.425970665,160.9]}},{"type":"Feature","properties":{"REMARKS":"UC - Public"},"geometry":{"type":"Point","coordinates":[-86.910183333,40.426366667,161.1]}},{"type":"Feature","properties":{"REMARKS":"UC - Parking"},"geometry":{"type":"Point","coordinates":[-86.909520887,40.426228188,157.9]}},{"type":"Feature","properties":{"REMARKS":"Park - Entrance"},"geometry":{"type":"Point","coordinates":[-86.909624822,40.425692467,149.3]}},{"type":"Feature","properties":{"REMARKS":"Park - Gate, Evasion watch"},"geometry":{"type":"Point","coordinates":[-86.909849793,40.42467614,157.4]}},{"type":"Feature","properties":{"REMARKS":"STEW -  Loading"},"geometry":{"type":"Point","coordinates":[-86.912315413,40.425423456,150.3]}},{"type":"Feature","properties":{"REMARKS":"STEW - Loading"},"geometry":{"type":"Point","coordinates":[-86.912789494,40.425463271,154.3]}},{"type":"Feature","properties":{"REMARKS":"STEW - Public"},"geometry":{"type":"Point","coordinates":[-86.91308789,40.42551738,152.4]}},{"type":"Feature","properties":{"REMARKS":"STEW - Public"},"geometry":{"type":"Point","coordinates":[-86.913505308,40.425396146,153.6]}},{"type":"Feature","properties":{"REMARKS":"STEW - Public"},"geometry":{"type":"Point","coordinates":[-86.913504638,40.42523918,150.2]}},{"type":"Feature","properties":{"REMARKS":"STEW - Public"},"geometry":{"type":"Point","coordinates":[-86.912890077,40.42471366,152.2]}},{"type":"Feature","properties":{"REMARKS":"STEW - Public"},"geometry":{"type":"Point","coordinates":[-86.912370063,40.4247083,153.9]}},{"type":"Feature","properties":{"REMARKS":"Lamppost - Public"},"geometry":{"type":"Point","coordinates":[-86.911731667,40.424458333,154.6]}},{"type":"Feature","properties":{"REMARKS":"MSEE - Public"},"geometry":{"type":"Point","coordinates":[-86.912571,40.429503,0.0]}},{"type":"Feature","properties":{"REMARKS":"MSEE - Public"},"geometry":{"type":"Point","coordinates":[-86.912372,40.429332,0.0]}},{"type":"Feature","properties":{"REMARKS":""},"geometry":{"type":"Point","coordinates":[-86.916408333,40.425213333,0.0]}},{"type":"Feature","properties":{"REMARKS":"BHEE - Public"},"geometry":{"type":"Point","coordinates":[-86.911895,40.429028,0.0]}},{"type":"Feature","properties":{"REMARKS":"BHEE - Public"},"geometry":{"type":"Point","coordinates":[-86.91157,40.428592,0.0]}},{"type":"Feature","properties":{"REMARKS":"BHEE - Loading"},"geometry":{"type":"Point","coordinates":[-86.911945,40.428266,0.0]}},{"type":"Feature","properties":{"REMARKS":"BHEE - Public"},"geometry":{"type":"Point","coordinates":[-86.912288,40.42851,0.0]}},{"type":"Feature","properties":{"REMARKS":"BHEE - Public"},"geometry":{"type":"Point","coordinates":[-86.912395,40.428885,0.0]}},{"type":"Feature","properties":{"REMARKS":""},"geometry":{"type":"Point","coordinates":[-86.912697,40.428746,0.0]}},{"type":"Feature","properties":{"REMARKS":""},"geometry":{"type":"Point","coordinates":[-86.912834,40.428629,0.0]}},{"type":"Feature","properties":{"REMARKS":""},"geometry":{"type":"Point","coordinates":[-86.913309,40.428331,0.0]}},{"type":"Feature","properties":{"REMARKS":""},"geometry":{"type":"Point","coordinates":[-86.912407,40.428459,0.0]}},{"type":"Feature","properties":{"REMARKS":"Emergency"},"geometry":{"type":"Point","coordinates":[-86.911964,40.428025,0.0]}},{"type":"Feature","properties":{"REMARKS":""},"geometry":{"type":"Point","coordinates":[-86.91149,40.427984,0.0]}},{"type":"Feature","properties":{"REMARKS":""},"geometry":{"type":"Point","coordinates":[-86.911488,40.427563,0.0]}},{"type":"Feature","properties":{"REMARKS":""},"geometry":{"type":"Point","coordinates":[-86.911491,40.427329,0.0]}},{"type":"Feature","properties":{"REMARKS":""},"geometry":{"type":"Point","coordinates":[-86.911211,40.427301,0.0]}},{"type":"Feature","properties":{"REMARKS":""},"geometry":{"type":"Point","coordinates":[-86.910675,40.427309,0.0]}},{"type":"Feature","properties":{"REMARKS":"Emergency"},"geometry":{"type":"Point","coordinates":[-86.911951,40.42812,0.0]}},{"type":"Feature","properties":{"REMARKS":""},"geometry":{"type":"Point","coordinates":[-86.911957,40.427423,0.0]}},{"type":"Feature","properties":{"REMARKS":""},"geometry":{"type":"Point","coordinates":[-86.911957,40.426954,0.0]}},{"type":"Feature","properties":{"REMARKS":""},"geometry":{"type":"Point","coordinates":[-86.911428,40.426932,0.0]}},{"type":"Feature","properties":{"REMARKS":""},"geometry":{"type":"Point","coordinates":[-86.910667,40.427091,0.0]}},{"type":"Feature","properties":{"REMARKS":""},"geometry":{"type":"Point","coordinates":[-86.9111,40.42616,0.0]}},{"type":"Feature","properties":{"REMARKS":""},"geometry":{"type":"Point","coordinates":[-86.910675,40.426767,0.0]}},{"type":"Feature","properties":{"REMARKS":""},"geometry":{"type":"Point","coordinates":[-86.911293,40.426303,0.0]}},{"type":"Feature","properties":{"REMARKS":""},"geometry":{"type":"Point","coordinates":[-86.910916,40.426548,0.0]}},{"type":"Feature","properties":{"REMARKS":""},"geometry":{"type":"Point","coordinates":[-86.911396,40.42646,0.0]}},{"type":"Feature","properties":{"REMARKS":""},"geometry":{"type":"Point","coordinates":[-86.911815,40.426777,0.0]}},{"type":"Feature","properties":{"REMARKS":""},"geometry":{"type":"Point","coordinates":[-86.912617,40.426254,0.0]}},{"type":"Feature","properties":{"REMARKS":""},"geometry":{"type":"Point","coordinates":[-86.913554,40.426747,0.0]}},{"type":"Feature","properties":{"REMARKS":""},"geometry":{"type":"Point","coordinates":[-86.913539,40.426768,0.0]}},{"type":"Feature","properties":{"REMARKS":""},"geometry":{"type":"Point","coordinates":[-86.912879,40.427059,0.0]}},{"type":"Feature","properties":{"REMARKS":""},"geometry":{"type":"Point","coordinates":[-86.912879,40.427124,0.0]}},{"type":"Feature","properties":{"REMARKS":""},"geometry":{"type":"Point","coordinates":[-86.9129,40.427773,0.0]}},{"type":"Feature","properties":{"REMARKS":""},"geometry":{"type":"Point","coordinates":[-86.9129,40.427814,0.0]}},{"type":"Feature","properties":{"REMARKS":""},"geometry":{"type":"Point","coordinates":[-86.913573,40.427778,0.0]}},{"type":"Feature","properties":{"REMARKS":""},"geometry":{"type":"Point","coordinates":[-86.913568,40.427043,0.0]}},{"type":"Feature","properties":{"REMARKS":""},"geometry":{"type":"Point","coordinates":[-86.91368,40.427069,0.0]}},{"type":"Feature","properties":{"REMARKS":""},"geometry":{"type":"Point","coordinates":[-86.913204,40.427032,0.0]}},{"type":"Feature","properties":{"REMARKS":"PHYS - Public"},"geometry":{"type":"Point","coordinates":[-86.913489215,40.42970096,223.3]}},{"type":"Feature","properties":{"REMARKS":"FRNY - Public"},"geometry":{"type":"Point","coordinates":[-86.913595162,40.42959862,152.8]}},{"type":"Feature","properties":{"REMARKS":"Lamppost"},"geometry":{"type":"Point","coordinates":[-86.914116667,40.429075,151.4]}},{"type":"Feature","properties":{"REMARKS":"Emergency"},"geometry":{"type":"Point","coordinates":[-86.914078333,40.428975,151.6]}},{"type":"Feature","properties":{"REMARKS":"Lamppost"},"geometry":{"type":"Point","coordinates":[-86.914683333,40.429586667,152.6]}},{"type":"Feature","properties":{"REMARKS":"HAMP - Public"},"geometry":{"type":"Point","coordinates":[-86.915305741,40.430337203,149.7]}},{"type":"Feature","properties":{"REMARKS":"ARMS - Public"},"geometry":{"type":"Point","coordinates":[-86.914373338,40.430703174,148.8]}},{"type":"Feature","properties":{"REMARKS":"ARMS - Public"},"geometry":{"type":"Point","coordinates":[-86.914113499,40.430877737,149.8]}},{"type":"Feature","properties":{"REMARKS":"ARMS - Public"},"geometry":{"type":"Point","coordinates":[-86.914425977,40.431168674,146.7]}},{"type":"Feature","properties":{"REMARKS":"ARMS - Public"},"geometry":{"type":"Point","coordinates":[-86.915858611,40.431011211,156.1]}},{"type":"Feature","properties":{"REMARKS":"Lamppost"},"geometry":{"type":"Point","coordinates":[-86.916185506,40.431020654,153.9]}},{"type":"Feature","properties":{"REMARKS":"ARMS - Public"},"geometry":{"type":"Point","coordinates":[-86.915826425,40.430817253,150.1]}},{"type":"Feature","properties":{"REMARKS":"PUSH - Back Entrance"},"geometry":{"type":"Point","coordinates":[-86.915998757,40.430229249,162.3]}},{"type":"Feature","properties":{"REMARKS":"PUSH - Public"},"geometry":{"type":"Point","coordinates":[-86.916382648,40.430593945,152.9]}},{"type":"Feature","properties":{"REMARKS":"PHARM - Public"},"geometry":{"type":"Point","coordinates":[-86.915591061,40.42988063,167.0]}},{"type":"Feature","properties":{"REMARKS":"PHARM - Public"},"geometry":{"type":"Point","coordinates":[-86.916233785,40.429473055,151.7]}},{"type":"Feature","properties":{"REMARKS":"PHARM - Public"},"geometry":{"type":"Point","coordinates":[-86.916383319,40.429778545,156.9]}},{"type":"Feature","properties":{"REMARKS":"Lamppost"},"geometry":{"type":"Point","coordinates":[-86.915084124,40.428665809,158.1]}},{"type":"Feature","properties":{"REMARKS":"Lamppost"},"geometry":{"type":"Point","coordinates":[-86.914955378,40.428541008,163.4]}},{"type":"Feature","properties":{"REMARKS":"Lamppost"},"geometry":{"type":"Point","coordinates":[-86.914586239,40.428711237,156.5]}},{"type":"Feature","properties":{"REMARKS":"Emergency"},"geometry":{"type":"Point","coordinates":[-86.914765611,40.429344937,158.2]}},{"type":"Feature","properties":{"REMARKS":"CHAS - Public"},"geometry":{"type":"Point","coordinates":[-86.915345304,40.428793417,156.8]}},{"type":"Feature","properties":{"REMARKS":"CHAS - Public"},"geometry":{"type":"Point","coordinates":[-86.915101667,40.428443333,157.5]}},{"type":"Feature","properties":{"REMARKS":"CHAS - Public"},"geometry":{"type":"Point","coordinates":[-86.915223333,40.428361667,155.5]}},{"type":"Feature","properties":{"REMARKS":"CHAS - Loading"},"geometry":{"type":"Point","coordinates":[-86.915422082,40.428551472,157.9]}},{"type":"Feature","properties":{"REMARKS":"CHAS - Public\n"},"geometry":{"type":"Point","coordinates":[-86.915746667,40.428346667,156.1]}},{"type":"Feature","properties":{"REMARKS":"CHAS - Public"},"geometry":{"type":"Point","coordinates":[-86.915812008,40.428443004,158.5]}},{"type":"Feature","properties":{"REMARKS":"CHAS - Public"},"geometry":{"type":"Point","coordinates":[-86.915895,40.428646667,155.3]}},{"type":"Feature","properties":{"REMARKS":"Chas - Public"},"geometry":{"type":"Point","coordinates":[-86.915489808,40.428900608,158.7]}},{"type":"Feature","properties":{"REMARKS":"HOVD - Public"},"geometry":{"type":"Point","coordinates":[-86.914280467,40.427937671,149.6]}},{"type":"Feature","properties":{"REMARKS":"HOVD - Public"},"geometry":{"type":"Point","coordinates":[-86.914790086,40.428421055,155.0]}},{"type":"Feature","properties":{"REMARKS":"HOVD - Public"},"geometry":{"type":"Point","coordinates":[-86.914790757,40.428450405,152.1]}},{"type":"Feature","properties":{"REMARKS":"Lamppost"},"geometry":{"type":"Point","coordinates":[-86.9139871,40.428234746,148.5]}},{"type":"Feature","properties":{"REMARKS":"ELLT - Public"},"geometry":{"type":"Point","coordinates":[-86.91538386,40.42751375,145.0]}},{"type":"Feature","properties":{"REMARKS":"ELLT - Public"},"geometry":{"type":"Point","coordinates":[-86.915528029,40.427601546,151.0]}},{"type":"Feature","properties":{"REMARKS":"AR - Public"},"geometry":{"type":"Point","coordinates":[-86.916157678,40.428438155,170.9]}},{"type":"Feature","properties":{"REMARKS":"AR - Public"},"geometry":{"type":"Point","coordinates":[-86.916396059,40.428444535,166.6]}},{"type":"Feature","properties":{"REMARKS":"AR - Public"},"geometry":{"type":"Point","coordinates":[-86.916601667,40.428385,158.6]}},{"type":"Feature","properties":{"REMARKS":"Emergency"},"geometry":{"type":"Point","coordinates":[-86.916796044,40.42717456,156.3]}},{"type":"Feature","properties":{"REMARKS":"PGU - Public"},"geometry":{"type":"Point","coordinates":[-86.917761639,40.427076044,154.8]}},{"type":"Feature","properties":{"REMARKS":"PGU - Public"},"geometry":{"type":"Point","coordinates":[-86.917771697,40.426917551,152.2]}},{"type":"Feature","properties":{"REMARKS":"PGU - Public"},"geometry":{"type":"Point","coordinates":[-86.91731371,40.426323132,153.5]}},{"type":"Feature","properties":{"REMARKS":"PGU - Public"},"geometry":{"type":"Point","coordinates":[-86.917199381,40.426325429,153.9]}},{"type":"Feature","properties":{"REMARKS":""},"geometry":{"type":"Point","coordinates":[-86.917351667,40.42631,153.9]}},{"type":"Feature","properties":{"REMARKS":"PGU - Public"},"geometry":{"type":"Point","coordinates":[-86.916793026,40.427084722,155.8]}},{"type":"Feature","properties":{"REMARKS":"HAAS - Public"},"geometry":{"type":"Point","coordinates":[-86.916491278,40.426590864,157.9]}},{"type":"Feature","properties":{"REMARKS":"HAAS - Public"},"geometry":{"type":"Point","coordinates":[-86.91654861,40.427016577,154.6]}},{"type":"Feature","properties":{"REMARKS":"PSYC - Public"},"geometry":{"type":"Point","coordinates":[-86.915284954,40.427158992,158.9]}},{"type":"Feature","properties":{"REMARKS":"PSYC - Public"},"geometry":{"type":"Point","coordinates":[-86.914711667,40.427211667,153.1]}},{"type":"Feature","properties":{"REMARKS":"PHYC - Public"},"geometry":{"type":"Point","coordinates":[-86.914597303,40.426931588,162.3]}},{"type":"Feature","properties":{"REMARKS":"PHYC - Public"},"geometry":{"type":"Point","coordinates":[-86.914820932,40.426930567,160.0]}},{"type":"Feature","properties":{"REMARKS":"SC - Public"},"geometry":{"type":"Point","coordinates":[-86.914523542,40.426804231,157.4]}},{"type":"Feature","properties":{"REMARKS":"CL50 - Public"},"geometry":{"type":"Point","coordinates":[-86.915331893,40.426399445,159.1]}},{"type":"Feature","properties":{"REMARKS":"MATH - Public"},"geometry":{"type":"Point","coordinates":[-86.915896162,40.426182248,155.3]}},{"type":"Feature","properties":{"REMARKS":"SC - Public"},"geometry":{"type":"Point","coordinates":[-86.914078966,40.426287656,154.2]}},{"type":"Feature","properties":{"REMARKS":"SC - Public"},"geometry":{"type":"Point","coordinates":[-86.914043427,40.426638591,152.2]}},{"type":"Feature","properties":{"REMARKS":"SCHM - Public"},"geometry":{"type":"Point","coordinates":[-86.915063001,40.426037789,155.7]}},{"type":"Feature","properties":{"REMARKS":"SCHM - Public"},"geometry":{"type":"Point","coordinates":[-86.915049925,40.425606965,155.7]}},{"type":"Feature","properties":{"REMARKS":"SCHM - Public"},"geometry":{"type":"Point","coordinates":[-86.915335916,40.426066375,172.0]}},{"type":"Feature","properties":{"REMARKS":"SCHM - Public"},"geometry":{"type":"Point","coordinates":[-86.91534061,40.425582974,177.8]}},{"type":"Feature","properties":{"REMARKS":"Emergency"},"geometry":{"type":"Point","coordinates":[-86.915393248,40.425538819,168.1]}},{"type":"Feature","properties":{"REMARKS":"SCHM - Public"},"geometry":{"type":"Point","coordinates":[-86.915054284,40.425678684,159.3]}},{"type":"Feature","properties":{"REMARKS":"UNIV - Public"},"geometry":{"type":"Point","coordinates":[-86.915071718,40.425108757,159.8]}},{"type":"Feature","properties":{"REMARKS":"STON - Public"},"geometry":{"type":"Point","coordinates":[-86.915472038,40.424805288,159.9]}},{"type":"Feature","properties":{"REMARKS":"STON - Public"},"geometry":{"type":"Point","coordinates":[-86.915604807,40.424809371,157.9]}},{"type":"Feature","properties":{"REMARKS":"WANG - Public"},"geometry":{"type":"Point","coordinates":[-86.913084202,40.430748091,151.1]}},{"type":"Feature","properties":{"REMARKS":"WANG - Public"},"geometry":{"type":"Point","coordinates":[-86.912808605,40.430937201,153.7]}},{"type":"Feature","properties":{"REMARKS":"WANG - Public"},"geometry":{"type":"Point","coordinates":[-86.912774071,40.430931331,153.5]}},{"type":"Feature","properties":{"REMARKS":"WANG - Public"},"geometry":{"type":"Point","coordinates":[-86.912623867,40.430788669,156.4]}},{"type":"Feature","properties":{"REMARKS":"WANG - Public"},"geometry":{"type":"Point","coordinates":[-86.912706667,40.430866667,159.6]}},{"type":"Feature","properties":{"REMARKS":"WANG - Public"},"geometry":{"type":"Point","coordinates":[-86.912622526,40.430787138,163.6]}},{"type":"Feature","properties":{"REMARKS":"WANG - Public"},"geometry":{"type":"Point","coordinates":[-86.912458912,40.430634778,162.9]}},{"type":"Feature","properties":{"REMARKS":"WANG - Public"},"geometry":{"type":"Point","coordinates":[-86.912344582,40.430536522,162.9]}},{"type":"Feature","properties":{"REMARKS":"WANG - Loading"},"geometry":{"type":"Point","coordinates":[-86.912023388,40.430227973,164.4]}},{"type":"Feature","properties":{"REMARKS":"WANG - Public"},"geometry":{"type":"Point","coordinates":[-86.912022382,40.430227207,161.2]}},{"type":"Feature","properties":{"REMARKS":"WANG - Public"},"geometry":{"type":"Point","coordinates":[-86.912070997,40.430129717,158.9]}},{"type":"Feature","properties":{"REMARKS":"WANG - Public"},"geometry":{"type":"Point","coordinates":[-86.91231139,40.43001921,161.7]}},{"type":"Feature","properties":{"REMARKS":"WANG - Public"},"geometry":{"type":"Point","coordinates":[-86.912673824,40.430318573,160.6]}},{"type":"Feature","properties":{"REMARKS":"WANG - Public"},"geometry":{"type":"Point","coordinates":[-86.912791841,40.430409428,160.7]}},{"type":"Feature","properties":{"REMARKS":"WANG - Public"},"geometry":{"type":"Point","coordinates":[-86.912998036,40.430656471,161.2]}},{"type":"Feature","properties":{"REMARKS":"WANG - Public"},"geometry":{"type":"Point","coordinates":[-86.913061403,40.430725633,158.9]}},{"type":"Feature","properties":{"REMARKS":"PGSC - Public"},"geometry":{"type":"Point","coordinates":[-86.912129335,40.429855109,156.9]}},{"type":"Feature","properties":{"REMARKS":"PGNW - Public"},"geometry":{"type":"Point","coordinates":[-86.910558902,40.429695346,156.3]}},{"type":"Feature","properties":{"REMARKS":"PGNW - Public"},"geometry":{"type":"Point","coordinates":[-86.91055052,40.429361782,154.1]}},{"type":"Feature","properties":{"REMARKS":"PGNW - Public"},"geometry":{"type":"Point","coordinates":[-86.911562718,40.429280368,159.2]}},{"type":"Feature","properties":{"REMARKS":"BALY - Loading"},"geometry":{"type":"Point","coordinates":[-86.909956667,40.42694,156.4]}},{"type":"Feature","properties":{"REMARKS":"BIDC - Emergency"},"geometry":{"type":"Point","coordinates":[-86.918579377,40.427353726,162.8]}},{"type":"Feature","properties":{"REMARKS":"HAGL - Public"},"geometry":{"type":"Point","coordinates":[-86.91905681,40.427179665,163.6]}},{"type":"Feature","properties":{"REMARKS":"HAGL - Emergency"},"geometry":{"type":"Point","coordinates":[-86.919016242,40.426952516,163.6]}},{"type":"Feature","properties":{"REMARKS":"HAGL - Public"},"geometry":{"type":"Point","coordinates":[-86.918887161,40.426943073,164.0]}},{"type":"Feature","properties":{"REMARKS":"HAGL - Public"},"geometry":{"type":"Point","coordinates":[-86.918607205,40.427126323,164.3]}},{"type":"Feature","properties":{"REMARKS":"WDCT - Public"},"geometry":{"type":"Point","coordinates":[-86.920964867,40.428749775,163.0]}},{"type":"Feature","properties":{"REMARKS":"WDCT - Public"},"geometry":{"type":"Point","coordinates":[-86.920767054,40.428748244,162.5]}},{"type":"Feature","properties":{"REMARKS":"WDCT - Public"},"geometry":{"type":"Point","coordinates":[-86.920681559,40.428712258,162.2]}},{"type":"Feature","properties":{"REMARKS":"PKRF - Public"},"geometry":{"type":"Point","coordinates":[-86.920010671,40.42829166,159.8]}},{"type":"Feature","properties":{"REMARKS":"PKRF - Loading"},"geometry":{"type":"Point","coordinates":[-86.919526868,40.427998158,163.0]}},{"type":"Feature","properties":{"REMARKS":"PKRF - Public"},"geometry":{"type":"Point","coordinates":[-86.919739768,40.427899643,164.9]}},{"type":"Feature","properties":{"REMARKS":"PKRF - Public"},"geometry":{"type":"Point","coordinates":[-86.91944506,40.427845026,166.1]}},{"type":"Feature","properties":{"REMARKS":"PKRF - Public"},"geometry":{"type":"Point","coordinates":[-86.919379681,40.427781732,165.7]}},{"type":"Feature","properties":{"REMARKS":"PKRF - Public"},"geometry":{"type":"Point","coordinates":[-86.919319332,40.427899388,164.2]}},{"type":"Feature","properties":{"REMARKS":"PKRF - Public"},"geometry":{"type":"Point","coordinates":[-86.919435002,40.428289873,162.5]}},{"type":"Feature","properties":{"REMARKS":"PKRF - Public"},"geometry":{"type":"Point","coordinates":[-86.919329055,40.428336068,163.2]}},{"type":"Feature","properties":{"REMARKS":"PKRF - Public"},"geometry":{"type":"Point","coordinates":[-86.919704564,40.428302634,163.2]}},{"type":"Feature","properties":{"REMARKS":"PKRF - Public"},"geometry":{"type":"Point","coordinates":[-86.919325031,40.428584139,171.7]}},{"type":"Feature","properties":{"REMARKS":"PKRF - Public"},"geometry":{"type":"Point","coordinates":[-86.919358333,40.428761667,171.0]}},{"type":"Feature","properties":{"REMARKS":"PKRF - Public"},"geometry":{"type":"Point","coordinates":[-86.919559725,40.428685205,170.9]}},{"type":"Feature","properties":{"REMARKS":"PKRF - Public"},"geometry":{"type":"Point","coordinates":[-86.919543296,40.428626505,170.2]}},{"type":"Feature","properties":{"REMARKS":"PKRF - Public"},"geometry":{"type":"Point","coordinates":[-86.919898018,40.428517783,170.8]}},{"type":"Feature","properties":{"REMARKS":"WDCT - Public"},"geometry":{"type":"Point","coordinates":[-86.920357682,40.428541008,169.6]}},{"type":"Feature","properties":{"REMARKS":"PKRF - Public"},"geometry":{"type":"Point","coordinates":[-86.920011006,40.428400893,175.9]}},{"type":"Feature","properties":{"REMARKS":"PKRW - Loading"},"geometry":{"type":"Point","coordinates":[-86.920031458,40.427695212,172.0]}},{"type":"Feature","properties":{"REMARKS":"KRCH - Loading"},"geometry":{"type":"Point","coordinates":[-86.921319924,40.427735026,169.6]}},{"type":"Feature","properties":{"REMARKS":"KRCH - Public"},"geometry":{"type":"Point","coordinates":[-86.921360828,40.427754934,169.4]}},{"type":"Feature","properties":{"REMARKS":"KRCH - Public"},"geometry":{"type":"Point","coordinates":[-86.9215516,40.42771614,167.5]}},{"type":"Feature","properties":{"REMARKS":"BCC - Public"},"geometry":{"type":"Point","coordinates":[-86.91933576,40.427403239,168.2]}},{"type":"Feature","properties":{"REMARKS":"KRCH - Public"},"geometry":{"type":"Point","coordinates":[-86.92087099,40.427491291,172.0]}},{"type":"Feature","properties":{"REMARKS":"KRCH - Public"},"geometry":{"type":"Point","coordinates":[-86.921225041,40.427476998,172.0]}},{"type":"Feature","properties":{"REMARKS":"HCRS - Emergency"},"geometry":{"type":"Point","coordinates":[-86.919673719,40.426214917,167.0]}},{"type":"Feature","properties":{"REMARKS":"HCRN - Public"},"geometry":{"type":"Point","coordinates":[-86.919657625,40.426935671,260.4]}},{"type":"Feature","properties":{"REMARKS":"HCRN - Public"},"geometry":{"type":"Point","coordinates":[-86.919651926,40.426665134,255.0]}},{"type":"Feature","properties":{"REMARKS":"WOOD - Loading"},"geometry":{"type":"Point","coordinates":[-86.921238787,40.425983681,242.6]}},{"type":"Feature","properties":{"REMARKS":"WARN - Emergency"},"geometry":{"type":"Point","coordinates":[-86.920849197,40.427261081,237.8]}},{"type":"Feature","properties":{"REMARKS":"WARN - Loading"},"geometry":{"type":"Point","coordinates":[-86.921326965,40.426739404,227.0]}},{"type":"Feature","properties":{"REMARKS":"Emergency"},"geometry":{"type":"Point","coordinates":[-86.922196336,40.427244746,153.2]}},{"type":"Feature","properties":{"REMARKS":"CREC - Public - Nonstandard"},"geometry":{"type":"Point","coordinates":[-86.922992952,40.428988147,154.0]}},{"type":"Feature","properties":{"REMARKS":"Emergency"},"geometry":{"type":"Point","coordinates":[-86.923880428,40.427462195,153.5]}},{"type":"Feature","properties":{"REMARKS":"CREC - Public"},"geometry":{"type":"Point","coordinates":[-86.922029704,40.427705166,152.1]}},{"type":"Feature","properties":{"REMARKS":""},"geometry":{"type":"Point","coordinates":[-86.925198399,40.429255612,152.4]}},{"type":"Feature","properties":{"REMARKS":"TREC - Public"},"geometry":{"type":"Point","coordinates":[-86.924556009,40.428185744,152.3]}},{"type":"Feature","properties":{"REMARKS":"TREC - Public"},"geometry":{"type":"Point","coordinates":[-86.924032979,40.428185999,153.5]}},{"type":"Feature","properties":{"REMARKS":""},"geometry":{"type":"Point","coordinates":[-86.926199198,40.430923675,155.2]}},{"type":"Feature","properties":{"REMARKS":""},"geometry":{"type":"Point","coordinates":[-86.926164329,40.431347319,159.1]}},{"type":"Feature","properties":{"REMARKS":""},"geometry":{"type":"Point","coordinates":[-86.926995479,40.431379475,160.9]}},{"type":"Feature","properties":{"REMARKS":""},"geometry":{"type":"Point","coordinates":[-86.927021965,40.430927503,159.4]}},{"type":"Feature","properties":{"REMARKS":"MDRS - Public"},"geometry":{"type":"Point","coordinates":[-86.923838519,40.425720286,141.5]}},{"type":"Feature","properties":{"REMARKS":"MDRS - Public"},"geometry":{"type":"Point","coordinates":[-86.923098229,40.425746575,143.0]}},{"type":"Feature","properties":{"REMARKS":"MDRS - Public"},"geometry":{"type":"Point","coordinates":[-86.922886334,40.425721563,145.7]}},{"type":"Feature","properties":{"REMARKS":"MDRS - Public"},"geometry":{"type":"Point","coordinates":[-86.922469251,40.425633764,146.6]}},{"type":"Feature","properties":{"REMARKS":"MDRS - Public"},"geometry":{"type":"Point","coordinates":[-86.922363639,40.42548956,148.0]}},{"type":"Feature","properties":{"REMARKS":"MDRS - Public"},"geometry":{"type":"Point","coordinates":[-86.922910139,40.425477054,148.8]}},{"type":"Feature","properties":{"REMARKS":"MDRS - Public"},"geometry":{"type":"Point","coordinates":[-86.922993623,40.425524526,148.9]}},{"type":"Feature","properties":{"REMARKS":"MDRS - Public"},"geometry":{"type":"Point","coordinates":[-86.923226304,40.425536777,148.9]}},{"type":"Feature","properties":{"REMARKS":"MDRS - Public"},"geometry":{"type":"Point","coordinates":[-86.923787221,40.425498493,150.7]}},{"type":"Feature","properties":{"REMARKS":"ERHT - Loading"},"geometry":{"type":"Point","coordinates":[-86.924916767,40.426130947,160.3]}},{"type":"Feature","properties":{"REMARKS":"SHRV - Public"},"geometry":{"type":"Point","coordinates":[-86.925469302,40.42706507,162.1]}},{"type":"Feature","properties":{"REMARKS":"FWLR - Public"},"geometry":{"type":"Point","coordinates":[-86.922405,40.425161667,163.5]}},{"type":"Feature","properties":{"REMARKS":"HNLY - Public"},"geometry":{"type":"Point","coordinates":[-86.923084818,40.42484051,157.8]}},{"type":"Feature","properties":{"REMARKS":"HNLY - Emergency"},"geometry":{"type":"Point","coordinates":[-86.923202164,40.424615395,162.3]}},{"type":"Feature","properties":{"REMARKS":"HNLY - Public"},"geometry":{"type":"Point","coordinates":[-86.922640912,40.424901255,162.3]}},{"type":"Feature","properties":{"REMARKS":"HNLY - Public"},"geometry":{"type":"Point","coordinates":[-86.922584921,40.42481856,158.3]}},{"type":"Feature","properties":{"REMARKS":"FSTC - Public"},"geometry":{"type":"Point","coordinates":[-86.924366667,40.424748333,159.4]}},{"type":"Feature","properties":{"REMARKS":"Emergency"},"geometry":{"type":"Point","coordinates":[-86.925899796,40.425690425,167.7]}},{"type":"Feature","properties":{"REMARKS":"Emergency "},"geometry":{"type":"Point","coordinates":[-86.927121878,40.425700889,171.5]}},{"type":"Feature","properties":{"REMARKS":"HILL - Public"},"geometry":{"type":"Point","coordinates":[-86.92737367,40.4259602,166.0]}},{"type":"Feature","properties":{"REMARKS":"HILL - Loading"},"geometry":{"type":"Point","coordinates":[-86.927259341,40.426308585,166.4]}},{"type":"Feature","properties":{"REMARKS":"HILL - Loading"},"geometry":{"type":"Point","coordinates":[-86.926897913,40.426132734,166.2]}},{"type":"Feature","properties":{"REMARKS":"HILL - Emergency"},"geometry":{"type":"Point","coordinates":[-86.926020831,40.426374433,168.2]}},{"type":"Feature","properties":{"REMARKS":"HILL - Public"},"geometry":{"type":"Point","coordinates":[-86.926069781,40.426096236,183.2]}},{"type":"Feature","properties":{"REMARKS":"PGMD - Public"},"geometry":{"type":"Point","coordinates":[-86.928755343,40.426053358,181.9]}},{"type":"Feature","properties":{"REMARKS":"PGMD - Public"},"geometry":{"type":"Point","coordinates":[-86.928718798,40.426504598,180.9]}},{"type":"Feature","properties":{"REMARKS":"PGMD - Public"},"geometry":{"type":"Point","coordinates":[-86.928723156,40.426872376,180.7]}},{"type":"Feature","properties":{"REMARKS":"PGMD - Public"},"geometry":{"type":"Point","coordinates":[-86.928718798,40.427054605,180.9]}},{"type":"Feature","properties":{"REMARKS":"PGMD - Public"},"geometry":{"type":"Point","coordinates":[-86.927655973,40.426613579,182.8]}},{"type":"Feature","properties":{"REMARKS":"3WST - Public"},"geometry":{"type":"Point","coordinates":[-86.929045,40.426818333,183.0]}},{"type":"Feature","properties":{"REMARKS":"3WST - Public"},"geometry":{"type":"Point","coordinates":[-86.929501667,40.42708,184.3]}},{"type":"Feature","properties":{"REMARKS":"3WST - Public"},"geometry":{"type":"Point","coordinates":[-86.929986667,40.427016667,184.4]}},{"type":"Feature","properties":{"REMARKS":"PW - Public"},"geometry":{"type":"Point","coordinates":[-86.929804757,40.424854037,155.7]}},{"type":"Feature","properties":{"REMARKS":"PW - Public"},"geometry":{"type":"Point","coordinates":[-86.930048838,40.424551332,155.2]}},{"type":"Feature","properties":{"REMARKS":"PW - Public"},"geometry":{"type":"Point","coordinates":[-86.930089407,40.424721316,154.2]}},{"type":"Feature","properties":{"REMARKS":"PW - Public"},"geometry":{"type":"Point","coordinates":[-86.930104494,40.42490151,154.9]}},{"type":"Feature","properties":{"REMARKS":"PW - Public"},"geometry":{"type":"Point","coordinates":[-86.930002235,40.424935456,154.9]}}]}